H1 CPF 01  gfz 2022 09 11 12  7542 terrasarx 
H2 0702601  6201 31698    2022 09 11 12 59 42 2022 09 16 00 00 42   120 1 1  0 0 0
H9
10 0 59833  46782.000000  0     138427.040  -2749932.408   6304128.006
10 0 59833  46902.000000  0    -148468.681  -3528299.814   5904537.023
10 0 59833  47022.000000  0    -445811.229  -4239958.844   5401132.781
10 0 59833  47142.000000  0    -747129.792  -4872329.803   4802726.754
10 0 59833  47262.000000  0   -1045672.001  -5414323.321   4119810.509
10 0 59833  47382.000000  0   -1334551.153  -5856545.592   3364375.580
10 0 59833  47502.000000  0   -1606899.522  -6191470.450   2549703.583
10 0 59833  47622.000000  0   -1856025.100  -6413576.670   1690132.290
10 0 59833  47742.000000  0   -2075568.641  -6519446.932    800798.905
10 0 59833  47862.000000  0   -2259654.682  -6507823.994   -102633.997
10 0 59833  47982.000000  0   -2403033.701  -6379623.637  -1004262.878
10 0 59833  48102.000000  0   -2501212.138  -6137903.683  -1888231.917
10 0 59833  48222.000000  0   -2550567.256  -5787790.250  -2739019.766
10 0 59833  48342.000000  0   -2548443.534  -5336362.923  -3541718.552
10 0 59833  48462.000000  0   -2493227.929  -4792501.606  -4282298.087
10 0 59833  48582.000000  0   -2384402.683  -4166700.946  -4947849.208
10 0 59833  48702.000000  0   -2222575.343  -3470858.292  -5526803.041
10 0 59833  48822.000000  0   -2009485.979  -2718040.185  -6009123.979
10 0 59833  48942.000000  0   -1747991.089  -1922231.692  -6386474.021
10 0 59833  49062.000000  0   -1442024.435  -1098074.011  -6652345.387
10 0 59833  49182.000000  0   -1096537.378   -260596.393  -6802161.237
10 0 59833  49302.000000  0    -717419.475    575053.416  -6833345.292
10 0 59833  49422.000000  0    -311399.203   1393876.213  -6745361.109
10 0 59833  49542.000000  0     114072.190   2181283.467  -6539719.946
10 0 59833  49662.000000  0     550952.813   2923351.087  -6219959.332
10 0 59833  49782.000000  0     990758.944   3607063.104  -5791589.741
10 0 59833  49902.000000  0    1424725.490   4220539.030  -5262007.998
10 0 59833  50022.000000  0    1843976.623   4753242.604  -4640381.431
10 0 59833  50142.000000  0    2239704.503   5196169.653  -3937500.378
10 0 59833  50262.000000  0    2603351.682   5542008.691  -3165599.636
10 0 59833  50382.000000  0    2926793.970   5785271.835  -2338152.883
10 0 59833  50502.000000  0    3202520.208   5922392.523  -1469640.879
10 0 59833  50622.000000  0    3423803.585   5951786.437   -575297.154
10 0 59833  50742.000000  0    3584859.519   5873872.916    329163.923
10 0 59833  50862.000000  0    3680986.126   5691055.805   1227830.081
10 0 59833  50982.000000  0    3708684.566   5407664.288   2104878.610
10 0 59833  51102.000000  0    3665755.259   5029856.338   2944863.201
10 0 59833  51222.000000  0    3551367.044   4565484.502   3732995.365
10 0 59833  51342.000000  0    3366098.417   4023927.327   4455409.049
10 0 59833  51462.000000  0    3111949.792   3415895.710   5099409.388
10 0 59833  51582.000000  0    2792322.494   2753212.912   5653696.135
10 0 59833  51702.000000  0    2411972.981   2048578.205   6108556.755
10 0 59833  51822.000000  0    1976940.850   1315319.150   6456032.175
10 0 59833  51942.000000  0    1494449.654    567135.538   6690049.961
10 0 59833  52062.000000  0     972784.359   -182156.857   6806523.462
10 0 59833  52182.000000  0     421148.296   -918880.196   6803419.892
10 0 59833  52302.000000  0    -150499.529  -1629744.695   6680794.103
10 0 59833  52422.000000  0    -731624.353  -2302088.111   6440787.185
10 0 59833  52542.000000  0   -1311309.257  -2924101.507   6087590.126
10 0 59833  52662.000000  0   -1878457.522  -3485036.897   5627374.277
10 0 59833  52782.000000  0   -2422003.896  -3975395.707   5068191.328
10 0 59833  52902.000000  0   -2931132.807  -4387095.327   4419840.151
10 0 59833  53022.000000  0   -3395497.345  -4713608.731   3693699.561
10 0 59833  53142.000000  0   -3805432.353  -4950073.748   2902530.375
10 0 59833  53262.000000  0   -4152157.056  -5093370.097   2060251.292
10 0 59833  53382.000000  0   -4427964.704  -5142162.564   1181691.474
10 0 59833  53502.000000  0   -4626393.403  -5096907.589    282323.745
10 0 59833  53622.000000  0   -4742373.554  -4959823.590   -622015.341
10 0 59833  53742.000000  0   -4772348.257  -4734825.584  -1515413.603
10 0 59833  53862.000000  0   -4714362.318  -4427424.747  -2382172.899
10 0 59833  53982.000000  0   -4568117.809  -4044595.701  -3207092.198
10 0 59833  54102.000000  0   -4334995.837  -3594616.731  -3975737.605
10 0 59833  54222.000000  0   -4018044.904  -3086887.764  -4674694.901
10 0 59833  54342.000000  0   -3621936.620  -2531730.020  -5291800.296
10 0 59833  54462.000000  0   -3152890.100  -1940172.772  -5816344.924
10 0 59833  54582.000000  0   -2618568.210  -1323732.387  -6239251.130
10 0 59833  54702.000000  0   -2027947.229   -694187.725  -6553219.011
10 0 59833  54822.000000  0   -1391162.362    -63356.756  -6752840.550
10 0 59833  54942.000000  0    -719334.270    557120.777  -6834681.363
10 0 59833  55062.000000  0     -24378.541   1155992.419  -6797333.562
10 0 59833  55182.000000  0     681200.208   1722591.633  -6641437.004
10 0 59833  55302.000000  0    1384527.383   2247023.105  -6369671.928
10 0 59833  55422.000000  0    2072589.018   2720333.389  -5986717.898
10 0 59833  55542.000000  0    2732468.477   3134663.474  -5499181.509
10 0 59833  55662.000000  0    3351585.989   3483379.899  -4915492.252
10 0 59833  55782.000000  0    3917938.255   3761184.823  -4245769.159
10 0 59833  55902.000000  0    4420334.343   3964201.501  -3501655.901
10 0 59833  56022.000000  0    4848622.283   4090032.630  -2696126.101
10 0 59833  56142.000000  0    5193899.651   4137789.640  -1843261.473
10 0 59833  56262.000000  0    5448704.515   4108092.526   -958006.866
10 0 59833  56382.000000  0    5607180.860   4003038.848    -55905.584
10 0 59833  56502.000000  0    5665214.286   3826143.147    847178.487
10 0 59833  56622.000000  0    5620534.821   3582246.843   1735347.699
10 0 59833  56742.000000  0    5472782.112   3277400.269   2592959.415
10 0 59833  56862.000000  0    5223531.640   2918721.531   3404910.321
10 0 59833  56982.000000  0    4876281.269   2514234.466   4156910.069
10 0 59833  57102.000000  0    4436397.704   2072689.412   4835736.424
10 0 59833  57222.000000  0    3911029.111   1603374.568   5429467.886
10 0 59833  57342.000000  0    3308980.749   1115920.116   5927693.902
10 0 59833  57462.000000  0    2640558.218    620098.752   6321691.774
10 0 59833  57582.000000  0    1917385.384    125630.213   6604571.492
10 0 59833  57702.000000  0    1152199.617   -358007.668   6771391.090
10 0 59833  57822.000000  0     358624.829   -821760.193   6819239.369
10 0 59833  57942.000000  0    -449072.373  -1257164.828   6747282.515
10 0 59833  58062.000000  0   -1256238.790  -1656505.276   6556777.097
10 0 59833  58182.000000  0   -2048099.259  -2012948.188   6251048.026
10 0 59833  58302.000000  0   -2810024.624  -2320659.377   5835434.367
10 0 59833  58422.000000  0   -3527802.995  -2574900.972   5317204.946
10 0 59833  58542.000000  0   -4187910.284  -2772107.003   4705437.013
10 0 59833  58662.000000  0   -4777770.095  -2909934.132   4010861.267
10 0 59833  58782.000000  0   -5285999.460  -2987286.580   3245676.971
10 0 59833  58902.000000  0   -5702635.668  -3004315.534   2423340.113
10 0 59833  59022.000000  0   -6019340.060  -2962393.513   1558326.131
10 0 59833  59142.000000  0   -6229571.882  -2864063.201    665869.663
10 0 59833  59262.000000  0   -6328726.591  -2712960.093   -238311.077
10 0 59833  59382.000000  0   -6314237.054  -2513713.216  -1138299.562
10 0 59833  59502.000000  0   -6185632.554  -2271824.760  -2018271.448
10 0 59833  59622.000000  0   -5944553.934  -1993532.815  -2862780.448
10 0 59833  59742.000000  0   -5594727.498  -1685661.076  -3657034.272
10 0 59833  59862.000000  0   -5141897.745  -1355459.367  -4387155.623
10 0 59833  59982.000000  0   -4593721.875  -1010439.105  -5040422.819
10 0 59833  60102.000000  0   -3959628.636   -658207.255  -5605486.542
10 0 59833  60222.000000  0   -3250645.234   -306303.146  -6072558.063
10 0 59833  60342.000000  0   -2479197.930     37958.367  -6433567.389
10 0 59833  60462.000000  0   -1658890.402    367633.891  -6682290.983
10 0 59833  60582.000000  0    -804263.332    676285.931  -6814448.024
10 0 59833  60702.000000  0      69459.364    958104.545  -6827765.529
10 0 59833  60822.000000  0     946634.562   1208013.136  -6722012.552
10 0 59833  60942.000000  0    1811473.076   1421757.137  -6499006.522
10 0 59833  61062.000000  0    2648318.602   1595976.047  -6162585.667
10 0 59833  61182.000000  0    3441926.861   1728255.890  -5718549.332
10 0 59833  61302.000000  0    4177739.923   1817161.536  -5174567.106
10 0 59833  61422.000000  0    4842154.213   1862249.494  -4540058.651
10 0 59833  61542.000000  0    5422777.369   1864060.220  -3826041.164
10 0 59833  61662.000000  0    5908666.655   1824089.207  -3044947.014
10 0 59833  61782.000000  0    6290545.403   1744737.703  -2210414.782
10 0 59833  61902.000000  0    6560992.533   1629244.196  -1337053.887
10 0 59833  62022.000000  0    6714597.796   1481596.948   -440187.399
10 0 59833  62142.000000  0    6748079.168   1306429.357    464422.016
10 0 59833  62262.000000  0    6660356.652   1108901.722   1360855.826
10 0 59833  62382.000000  0    6452585.376    894571.924   2233327.448
10 0 59833  62502.000000  0    6128141.707    669257.038   3066470.473
10 0 59833  62622.000000  0    5692564.408    438890.930   3845616.582
10 0 59833  62742.000000  0    5153451.923    209381.069   4557059.684
10 0 59833  62862.000000  0    4520320.864    -13530.579   5188298.264
10 0 59833  62982.000000  0    3804428.125   -224401.815   5728255.981
10 0 59833  63102.000000  0    3018559.970   -418214.300   6167471.813
10 0 59833  63222.000000  0    2176796.423   -590484.751   6498260.081
99
